OBJECT_NAME,OBJECT_ID,EPOCH,MEAN_MOTION,ECCENTRICITY,INCLINATION,RA_OF_ASC_NODE,ARG_OF_PERICENTER,MEAN_ANOMALY,EPHEMERIS_TYPE,CLASSIFICATION_TYPE,NORAD_CAT_ID,ELEMENT_SET_NO,REV_AT_EPOCH,BSTAR,MEAN_MOTION_DOT,MEAN_MOTION_DDOT
YAOGAN-17 01C,2013-046C,2026-07-18T23:34:40.338912,13.45482585,.04297381,63.3876,7.6432,11.6734,349.3881,0,U,39241,999,63265,.5455223E-5,-.85E-6,0
GONETS-M 5,2013-048A,2026-07-18T21:52:04.421856,12.42892647,.00174807,82.4861,323.6047,141.9583,218.2734,0,U,39249,999,58282,.18750005E-3,.36E-6,0
GONETS-M 6,2013-048B,2026-07-18T22:57:53.359776,12.43031565,.00195227,82.4889,324.4746,173.9438,186.1881,0,U,39250,999,58289,-.44942208E-3,-.52E-6,0
GONETS-M 7,2013-048C,2026-07-18T20:57:54.109152,12.42915548,.00182775,82.4928,326.5668,143.2921,216.9415,0,U,39251,999,58277,.37443003E-3,.62E-6,0
HISAKI (SPRINT-A),2013-049A,2026-07-18T20:54:11.808000,13.55546936,.01369744,29.7217,58.9250,273.6624,84.8293,0,U,39253,999,63572,.32966621E-4,.91E-6,0
AEHF-3 (USA 246),2013-050A,2026-07-18T14:09:13.440096,1.00271943,.00885722,5.3686,66.8936,187.7007,129.8227,0,U,39256,999,4596,0,.2E-6,0
FENGYUN 3C,2013-052A,2026-07-18T23:42:56.946240,14.15761169,.00135409,98.5002,172.4066,294.2144,65.7616,0,U,39260,999,66306,.25022443E-4,.8E-7,0
CASSIOPE,2013-055A,2026-07-18T21:16:01.717536,15.27543902,.02821844,80.9132,28.1405,315.3651,42.5165,0,U,39265,999,67250,.16747689E-3,.15657E-3,-.532289E-6
POPACS 2,2013-055E,2026-07-18T18:31:57.433728,14.92117580,.04146118,80.9910,108.0235,92.4092,272.4645,0,U,39269,999,66792,.22904069E-3,.14075E-3,-.928151E-6
POPACS 3,2013-055F,2026-07-18T07:24:03.271680,14.56710923,.05483759,81.0005,195.4250,335.1698,22.3977,0,U,39270,999,64308,.1794019E-3,.7544E-4,0
ASTRA 2E,2013-056A,2026-07-18T22:12:06.410016,1.00270777,.00026019,0.0707,318.9333,154.2952,184.9746,0,U,39285,999,4673,0,.144E-5,0
SHIJIAN-16 (SJ-16),2013-057A,2026-07-18T22:37:18.816960,14.92675135,.00156626,74.9739,296.5368,155.5999,204.5935,0,U,39358,999,69108,.23467292E-4,.213E-5,0
FM-6,2013-058A,2026-07-18T14:07:38.839008,1.00278676,.00014958,0.0130,35.9612,147.9640,208.0270,0,U,39360,999,4638,0,-.24E-6,0
RADUGA-1M 3,2013-062A,2026-07-18T22:19:17.550336,1.00271078,.00020648,6.0374,71.9460,283.0748,311.4963,0,U,39375,999,4642,0,.144E-5,0
YAOGAN-19,2013-065A,2026-07-18T22:51:13.448736,13.15583598,.00097408,100.1139,174.9372,19.0572,341.0905,0,U,39410,999,60782,-.93940574E-3,-.397E-5,0
APRIZESAT 7,2013-066A,2026-07-18T19:37:18.862752,14.91623631,.00373032,97.7723,152.5866,105.7785,254.7552,0,U,39416,999,68594,.73567048E-4,.691E-5,0
ZACUBE-1 (TSHEPISOSAT),2013-066B,2026-07-18T20:48:28.769760,15.01338468,.00440642,97.8003,162.3585,143.4154,217.0094,0,U,39417,999,68548,.10186605E-3,.1274E-4,0
SKYSAT-A,2013-066C,2026-07-18T20:51:30.377376,15.13126389,.00208202,97.3798,248.2566,200.2242,159.8167,0,U,39418,999,69327,.85305753E-4,.1454E-4,0
DUBAISAT-2,2013-066D,2026-07-18T22:32:09.492000,15.10386354,.00091528,97.4582,189.2584,288.3772,71.6462,0,U,39419,999,69118,.68722706E-4,.1066E-4,0
OPTOS,2013-066E,2026-07-18T03:09:22.097664,14.72391472,.01148339,97.6774,62.2905,271.8217,86.9843,0,U,39420,999,67607,.70365447E-4,.44E-5,0
STSAT-3,2013-066G,2026-07-18T22:32:28.078368,15.02899982,.00088287,97.6205,169.3152,289.9544,70.0730,0,U,39422,999,68897,.14023137E-3,.1822E-4,0
WNISAT-1,2013-066H,2026-07-18T20:20:00.157920,14.58124563,.0164073,97.7241,346.7625,131.8801,229.6533,0,U,39423,999,67134,.10865159E-3,.555E-5,0
APRIZESAT 8,2013-066K,2026-07-18T19:42:20.107584,14.87699337,.00458156,97.8230,146.8510,179.9033,180.2201,0,U,39425,999,68437,.453506E-4,.364E-5,0
TRITON-1,2013-066M,2026-07-18T21:35:04.640064,14.81801609,.0090847,97.8219,108.9816,130.1851,230.7360,0,U,39427,999,67878,.92675092E-4,.729E-5,0
GOMX-1,2013-066Q,2026-07-18T20:21:07.898976,14.69547400,.0127919,97.6463,38.3123,336.4536,23.0846,0,U,39430,999,67456,.99249838E-4,.614E-5,0
CUBEBUG-2 (LO-74),2013-066AA,2026-07-18T19:29:11.012928,14.93981472,.00555757,97.8920,148.9319,283.1152,76.3869,0,U,39440,999,68171,.17796214E-3,.1891E-4,0
NEE-02 KRYSAOR,2013-066AB,2026-07-18T18:35:55.146048,14.86747130,.006512,97.8896,138.7683,327.4337,32.2869,0,U,39441,999,68089,.11341342E-3,.989E-5,0
FUNCUBE-1 (AO-73),2013-066AE,2026-07-18T20:54:53.730144,15.09848087,.0037964,97.8298,171.9904,95.7411,264.8148,0,U,39444,999,68444,.27858979E-3,.4515E-4,0
UWE-3,2013-066AG,2026-07-18T19:53:41.818272,14.97214313,.0047627,97.8721,156.1237,212.0168,147.8158,0,U,39446,999,68231,.18604253E-3,.2139E-4,0
SWARM B,2013-067A,2026-07-18T21:12:01.735488,15.28731201,.0002224,87.7464,332.6885,86.1050,274.0453,0,U,39451,999,68808,.671773E-4,.1911E-4,0
