YAOGAN-17 01C           
1 39241U 13046C   26199.98241133 -.00000085  00000+0  54552-5 0  9990
2 39241  63.3876   7.6432 0429738  11.6734 349.3881 13.45482585632654
GONETS-M 5              
1 39249U 13048A   26199.91116229  .00000036  00000+0  18750-3 0  9993
2 39249  82.4861 323.6047 0017480 141.9583 218.2734 12.42892647582821
GONETS-M 6              
1 39250U 13048B   26199.95686759 -.00000052  00000+0 -44942-3 0  9991
2 39250  82.4889 324.4746 0019522 173.9438 186.1881 12.43031565582899
GONETS-M 7              
1 39251U 13048C   26199.87354293  .00000062  00000+0  37443-3 0  9995
2 39251  82.4928 326.5668 0018277 143.2921 216.9415 12.42915548582776
HISAKI (SPRINT-A)       
1 39253U 13049A   26199.87097000  .00000091  00000+0  32967-4 0  9997
2 39253  29.7217  58.9250 0136974 273.6624  84.8293 13.55546936635725
AEHF-3 (USA 246)        
1 39256U 13050A   26199.58973889  .00000020  00000+0  00000+0 0  9998
2 39256   5.3686  66.8936 0088572 187.7007 129.8227  1.00271943 45965
FENGYUN 3C              
1 39260U 13052A   26199.98815910  .00000008  00000+0  25022-4 0  9991
2 39260  98.5002 172.4066 0013540 294.2144  65.7616 14.15761169663064
CASSIOPE                
1 39265U 13055A   26199.88613099  .00015657 -53229-6  16748-3 0  9991
2 39265  80.9132  28.1405 0282184 315.3651  42.5165 15.27543902672500
POPACS 2                
1 39269U 13055E   26199.77219252  .00014075 -92815-6  22904-3 0  9994
2 39269  80.9910 108.0235 0414611  92.4092 272.4645 14.92117580667928
POPACS 3                
1 39270U 13055F   26199.30837120  .00007544  00000+0  17940-3 0  9999
2 39270  81.0005 195.4250 0548375 335.1698  22.3977 14.56710923643089
ASTRA 2E                
1 39285U 13056A   26199.92507419  .00000144  00000+0  00000+0 0  9993
2 39285   0.0707 318.9333 0002601 154.2952 184.9746  1.00270777 46730
SHIJIAN-16 (SJ-16)      
1 39358U 13057A   26199.94257890  .00000213  00000+0  23467-4 0  9996
2 39358  74.9739 296.5368 0015662 155.5999 204.5935 14.92675135691086
FM-6                    
1 39360U 13058A   26199.58864397 -.00000024  00000+0  00000+0 0  9990
2 39360   0.0130  35.9612 0001495 147.9640 208.0270  1.00278676 46380
RADUGA-1M 3             
1 39375U 13062A   26199.93006424  .00000144  00000+0  00000+0 0  9991
2 39375   6.0374  71.9460 0002064 283.0748 311.4963  1.00271078 46429
YAOGAN-19               
1 39410U 13065A   26199.95223899 -.00000397  00000+0 -93941-3 0  9995
2 39410 100.1139 174.9372 0009740  19.0572 341.0905 13.15583598607824
APRIZESAT 7             
1 39416U 13066A   26199.81757943  .00000691  00000+0  73567-4 0  9997
2 39416  97.7723 152.5866 0037303 105.7785 254.7552 14.91623631685940
ZACUBE-1 (TSHEPISOSAT)  
1 39417U 13066B   26199.86699965  .00001274  00000+0  10187-3 0  9998
2 39417  97.8003 162.3585 0044064 143.4154 217.0094 15.01338468685486
SKYSAT-A                
1 39418U 13066C   26199.86910159  .00001454  00000+0  85306-4 0  9996
2 39418  97.3798 248.2566 0020820 200.2242 159.8167 15.13126389693270
DUBAISAT-2              
1 39419U 13066D   26199.93899875  .00001066  00000+0  68723-4 0  9999
2 39419  97.4582 189.2584 0009152 288.3772  71.6462 15.10386354691181
OPTOS                   
1 39420U 13066E   26199.13150576  .00000440  00000+0  70365-4 0  9991
2 39420  97.6774  62.2905 0114833 271.8217  86.9843 14.72391472676076
STSAT-3                 
1 39422U 13066G   26199.93921387  .00001822  00000+0  14023-3 0  9990
2 39422  97.6205 169.3152 0008828 289.9544  70.0730 15.02899982688973
WNISAT-1                
1 39423U 13066H   26199.84722405  .00000555  00000+0  10865-3 0  9993
2 39423  97.7241 346.7625 0164073 131.8801 229.6533 14.58124563671349
APRIZESAT 8             
1 39425U 13066K   26199.82106606  .00000364  00000+0  45351-4 0  9999
2 39425  97.8230 146.8510 0045815 179.9033 180.2201 14.87699337684373
TRITON-1                
1 39427U 13066M   26199.89935926  .00000729  00000+0  92675-4 0  9999
2 39427  97.8219 108.9816 0090847 130.1851 230.7360 14.81801609678788
GOMX-1                  
1 39430U 13066Q   26199.84800809  .00000614  00000+0  99250-4 0  9998
2 39430  97.6463  38.3123 0127919 336.4536  23.0846 14.69547400674566
CUBEBUG-2 (LO-74)       
1 39440U 13066AA  26199.81193302  .00001891  00000+0  17796-3 0  9991
2 39440  97.8920 148.9319 0055575 283.1152  76.3869 14.93981472681711
NEE-02 KRYSAOR          
1 39441U 13066AB  26199.77494382  .00000989  00000+0  11341-3 0  9996
2 39441  97.8896 138.7683 0065120 327.4337  32.2869 14.86747130680891
FUNCUBE-1 (AO-73)       
1 39444U 13066AE  26199.87145521  .00004515  00000+0  27859-3 0  9998
2 39444  97.8298 171.9904 0037964  95.7411 264.8148 15.09848087684445
UWE-3                   
1 39446U 13066AG  26199.82895623  .00002139  00000+0  18604-3 0  9998
2 39446  97.8721 156.1237 0047627 212.0168 147.8158 14.97214313682312
SWARM B                 
1 39451U 13067A   26199.88335342  .00001911  00000+0  67177-4 0  9995
2 39451  87.7464 332.6885 0002224  86.1050 274.0453 15.28731201688080
